OBJECT_NAME,OBJECT_ID,EPOCH,MEAN_MOTION,ECCENTRICITY,INCLINATION,RA_OF_ASC_NODE,ARG_OF_PERICENTER,MEAN_ANOMALY,EPHEMERIS_TYPE,CLASSIFICATION_TYPE,NORAD_CAT_ID,ELEMENT_SET_NO,REV_AT_EPOCH,BSTAR,MEAN_MOTION_DOT,MEAN_MOTION_DDOT
TERRA,1999-068A,2003-07-18T03:33:49.712256,14.57156535,.0001066,98.1853,272.9028,70.3073,289.8340,0,U,25994,170,19045,.11686E-3,.482E-5,0
TERRA,1999-068A,2003-07-18T05:12:42.416640,14.57156607,.0001066,98.1853,272.9703,70.0940,290.0373,0,U,25994,171,19046,.11686E-3,.482E-5,0
TERRA,1999-068A,2003-07-18T18:23:45.346848,14.57156774,.0001015,98.1841,273.5090,66.0885,294.0398,0,U,25994,172,19054,.10385E-3,.423E-5,0
TERRA,1999-068A,2003-07-19T02:38:09.736224,14.57156809,.0000961,98.1844,273.8466,69.4685,290.6627,0,U,25994,173,19059,.94238E-4,.38E-5,0
TERRA,1999-068A,2003-07-19T05:55:55.451712,14.57156925,.0000961,98.1844,273.9815,69.0423,291.0878,0,U,25994,174,19061,.94238E-4,.38E-5,0
TERRA,1999-068A,2003-07-19T19:06:58.374144,14.57157391,.0000961,98.1844,274.5213,67.3375,292.7925,0,U,25994,175,19069,.94238E-4,.38E-5,0
TERRA,1999-068A,2003-07-20T03:21:22.650336,14.57158124,.000089,98.1845,274.8595,71.5560,288.5754,0,U,25994,176,19074,.10511E-3,.429E-5,0
TERRA,1999-068A,2003-07-20T05:00:15.480864,14.57158189,.000089,98.1845,274.9270,71.3428,288.7867,0,U,25994,177,19075,.10511E-3,.429E-5,0
TERRA,1999-068A,2003-07-20T18:11:18.370464,14.57158506,.0000849,98.1842,275.4668,71.3317,288.7974,0,U,25994,178,19083,.97555E-4,.395E-5,0
TERRA,1999-068A,2003-07-20T19:50:11.230368,14.57157148,.0000945,98.1843,275.5341,77.2597,282.8646,0,U,25994,179,19084,.43023E-4,.149E-5,0
TERRA,1999-068A,2003-07-21T04:04:35.650848,14.57157312,.000094,98.1842,275.8714,75.7020,284.4283,0,U,25994,179,19089,.42009E-4,.144E-5,0
TERRA,1999-068A,2003-07-21T05:43:28.515936,14.57157338,.000094,98.1842,275.9389,75.4889,284.6414,0,U,25994,180,19090,.42009E-4,.144E-5,0
TERRA,1999-068A,2003-07-21T15:36:45.702144,14.57159778,.0000968,98.1835,276.3446,76.7219,283.4184,0,U,25994,181,19096,.12761E-3,.531E-5,0
TERRA,1999-068A,2003-07-21T18:54:31.239648,14.57160054,.000097,98.1835,276.4793,79.4089,280.7219,0,U,25994,182,19098,.13322E-3,.556E-5,0
TERRA,1999-068A,2003-07-22T03:08:55.511520,14.57160151,.0000984,98.1836,276.8168,76.5395,283.5902,0,U,25994,183,19103,.12252E-3,.508E-5,0
TERRA,1999-068A,2003-07-22T06:26:41.236512,14.57159769,.0001021,98.1834,276.9516,75.0872,285.0409,0,U,25994,184,19105,.10617E-3,.434E-5,0
TERRA,1999-068A,2003-07-22T19:37:44.086368,14.57160515,.0001042,98.1835,277.4916,78.9544,281.1766,0,U,25994,185,19113,.11709E-3,.483E-5,0
TERRA,1999-068A,2003-07-23T03:52:08.493024,14.57160049,.0001053,98.1848,277.8284,65.4198,294.7145,0,U,25994,186,19118,.878E-4,.351E-5,0
TERRA,1999-068A,2003-07-23T05:31:01.288992,14.57160067,.0001046,98.1848,277.8959,65.7000,294.4306,0,U,25994,187,19119,.87115E-4,.348E-5,0
TERRA,1999-068A,2003-07-23T15:24:18.446688,14.57157211,.0001278,98.1856,278.3025,44.7648,315.3323,0,U,25994,188,19125,.3881E-4,.13E-5,0
TERRA,1999-068A,2003-07-23T15:24:18.991872,14.57145879,.0001355,98.1849,278.3030,36.9651,323.1152,0,U,25994,189,19125,-.38836E-3,-.1796E-4,0
TERRA,1999-068A,2003-07-23T18:42:05.619744,14.57142695,.0001072,98.1858,278.4391,31.8942,328.2238,0,U,25994,190,19127,-.49779E-3,-.2288E-4,0
TERRA,1999-068A,2003-07-24T02:56:30.699456,14.57121572,.0001708,98.1859,278.7752,98.5361,261.5233,0,U,25994,191,19132,.27821E-2,.12516E-3,0
TERRA,1999-068A,2003-07-24T04:35:25.021248,14.57123291,.0001708,98.1859,278.8427,98.3241,261.8152,0,U,25994,192,19133,.27821E-2,.12516E-3,0
TERRA,1999-068A,2003-07-24T06:14:18.021120,14.57125009,.0001708,98.1859,278.9101,98.1120,262.0273,0,U,25994,193,19134,.27821E-2,.12517E-3,0
TERRA,1999-068A,2003-07-24T19:25:22.726848,14.57106592,.0001256,98.1846,279.4498,94.1613,265.9729,0,U,25994,194,19142,-.2359E-3,-.1108E-4,0
TERRA,1999-068A,2003-07-24T21:04:15.798432,14.57106446,.0001256,98.1846,279.5172,93.9481,266.1861,0,U,25994,195,19143,-.2359E-3,-.1108E-4,0
TERRA,1999-068A,2003-07-25T02:00:55.016640,14.57108730,.0001204,98.1875,279.7212,88.7716,271.3672,0,U,25994,195,19146,.93845E-5,-.3E-7,0
TERRA,1999-068A,2003-07-25T06:57:34.117344,14.57109265,.0001062,98.1877,279.9232,91.5129,268.6235,0,U,25994,196,19149,.93845E-5,-.3E-7,0
TERRA,1999-068A,2003-07-25T18:29:45.466368,14.57109107,.0001039,98.1866,280.3945,87.8180,272.3130,0,U,25994,197,19156,-.482E-5,-.67E-6,0
TERRA,1999-068A,2003-07-26T02:44:10.781952,14.57109111,.0001019,98.1868,280.7319,86.8275,273.3043,0,U,25994,198,19161,-.482E-5,-.67E-6,0
