1 25994U 99068A   03199.14849204  .00000482  00000-0  11686-3 0  1705
2 25994  98.1853 272.9028 0001066  70.3073 289.8340 14.57156535190453
1 25994U 99068A   03199.21715760  .00000482  00000-0  11686-3 0  1713
2 25994  98.1853 272.9703 0001066  70.0940 290.0373 14.57156607190464
1 25994U 99068A   03199.76649707  .00000423  00000-0  10385-3 0  1721
2 25994  98.1841 273.5090 0001015  66.0885 294.0398 14.57156774190549
1 25994U 99068A   03200.10983491  .00000380  00000-0  94238-4 0  1736
2 25994  98.1844 273.8466 0000961  69.4685 290.6627 14.57156809190597
1 25994U 99068A   03200.24716958  .00000380  00000-0  94238-4 0  1744
2 25994  98.1844 273.9815 0000961  69.0423 291.0878 14.57156925190617
1 25994U 99068A   03200.79650896  .00000380  00000-0  94238-4 0  1753
2 25994  98.1844 274.5213 0000961  67.3375 292.7925 14.57157391190690
1 25994U 99068A   03201.13984549  .00000429  00000-0  10511-3 0  1763
2 25994  98.1845 274.8595 0000890  71.5560 288.5754 14.57158124190745
1 25994U 99068A   03201.20851251  .00000429  00000-0  10511-3 0  1775
2 25994  98.1845 274.9270 0000890  71.3428 288.7867 14.57158189190756
1 25994U 99068A   03201.75785151  .00000395  00000-0  97555-4 0  1787
2 25994  98.1842 275.4668 0000849  71.3317 288.7974 14.57158506190832
1 25994U 99068A   03201.82651887  .00000149  00000-0  43023-4 0  1792
2 25994  98.1843 275.5341 0000945  77.2597 282.8646 14.57157148190847
1 25994U 99068A   03202.16985707  .00000144  00000-0  42009-4 0  1799
2 25994  98.1842 275.8714 0000940  75.7020 284.4283 14.57157312190895
1 25994U 99068A   03202.23852449  .00000144  00000-0  42009-4 0  1805
2 25994  98.1842 275.9389 0000940  75.4889 284.6414 14.57157338190902
1 25994U 99068A   03202.65052896  .00000531  00000-0  12761-3 0  1811
2 25994  98.1835 276.3446 0000968  76.7219 283.4184 14.57159778190961
1 25994U 99068A   03202.78786157  .00000556  00000-0  13322-3 0  1821
2 25994  98.1835 276.4793 0000970  79.4089 280.7219 14.57160054190985
1 25994U 99068A   03203.13119805  .00000508  00000-0  12252-3 0  1830
2 25994  98.1836 276.8168 0000984  76.5395 283.5902 14.57160151191034
1 25994U 99068A   03203.26853283  .00000434  00000-0  10617-3 0  1841
2 25994  98.1834 276.9516 0001021  75.0872 285.0409 14.57159769191051
1 25994U 99068A   03203.81787137  .00000483  00000-0  11709-3 0  1854
2 25994  98.1835 277.4916 0001042  78.9544 281.1766 14.57160515191136
1 25994U 99068A   03204.16120941  .00000351  00000-0  87800-4 0  1868
2 25994  98.1848 277.8284 0001053  65.4198 294.7145 14.57160049191188
1 25994U 99068A   03204.22987603  .00000348  00000-0  87115-4 0  1877
2 25994  98.1848 277.8959 0001046  65.7000 294.4306 14.57160067191191
1 25994U 99068A   03204.64188017  .00000130  00000-0  38810-4 0  1883
2 25994  98.1856 278.3025 0001278  44.7648 315.3323 14.57157211191258
1 25994U 99068A   03204.64188648 -.00001796  00000-0 -38836-3 0  1892
2 25994  98.1849 278.3030 0001355  36.9651 323.1152 14.57145879191253
1 25994U 99068A   03204.77923171 -.00002288  00000-0 -49779-3 0  1901
2 25994  98.1858 278.4391 0001072  31.8942 328.2238 14.57142695191273
1 25994U 99068A   03205.12257754  .00012516  00000-0  27821-2 0  1915
2 25994  98.1859 278.7752 0001708  98.5361 261.5233 14.57121572191320
1 25994U 99068A   03205.19126182  .00012516  00000-0  27821-2 0  1923
2 25994  98.1859 278.8427 0001708  98.3241 261.8152 14.57123291191339
1 25994U 99068A   03205.25993080  .00012517  00000-0  27821-2 0  1931
2 25994  98.1859 278.9101 0001708  98.1120 262.0273 14.57125009191340
1 25994U 99068A   03205.80929082 -.00001108  00000-0 -23590-3 0  1940
2 25994  98.1846 279.4498 0001256  94.1613 265.9729 14.57106592191425
1 25994U 99068A   03205.87796063 -.00001108  00000-0 -23590-3 0  1959
2 25994  98.1846 279.5172 0001256  93.9481 266.1861 14.57106446191434
1 25994U 99068A   03206.08397010 -.00000003  00000-0  93845-5 0  1956
2 25994  98.1875 279.7212 0001204  88.7716 271.3672 14.57108730191468
1 25994U 99068A   03206.28997821 -.00000003  00000-0  93845-5 0  1965
2 25994  98.1877 279.9232 0001062  91.5129 268.6235 14.57109265191497
1 25994U 99068A   03206.77066512 -.00000067  00000-0 -48200-5 0  1970
2 25994  98.1866 280.3945 0001039  87.8180 272.3130 14.57109107191560
1 25994U 99068A   03207.11401368 -.00000067  00000-0 -48200-5 0  1982
2 25994  98.1868 280.7319 0001019  86.8275 273.3043 14.57109111191618
